start=new Date('2022-11-02T00:00:00.000Z').valueOf();
sats=[{"OBJECT_NAME":"STARLINK-4764","RCS_SIZE":"LARGE","CLASSIFICATION_TYPE":"U","EPHEMERIS_TYPE":"0","ELEMENT_SET_NO":"999","TIME_SYSTEM":"UTC","APOAPSIS":"387.450","FILE":"3640431","PERIOD":"92.285","CENTER_NAME":"EARTH","NORAD_CAT_ID":"53827","INCLINATION":"53.2167","LAUNCH_DATE":"2022-09-19","OBJECT_TYPE":"PAYLOAD","ARG_OF_PERICENTER":"50.7617","PERIAPSIS":"385.635","MEAN_ANOMALY":"7.2931","SITE":"AFETR","MEAN_MOTION":"15.60386250","RA_OF_ASC_NODE":"41.9263","ECCENTRICITY":"0.00013410","MEAN_MOTION_DOT":"-0.01159267","DECAY_DATE":null,"OBJECT_ID":"2022-114K","BSTAR":"-0.01537900000000","MEAN_MOTION_DDOT":"0.0000000000000","TLE_LINE1":"1 53827U 22114K   22305.91667824 -.01159267  00000-0 -15379-1 0  9999","COUNTRY_CODE":"US","SEMIMAJOR_AXIS":"6764.678","GP_ID":"216688656","REF_FRAME":"TEME","EPOCH":"2022-11-01T22:00:00.999936","MEAN_ELEMENT_THEORY":"SGP4","TLE_LINE2":"2 53827  53.2167  41.9263 0001341  50.7617   7.2931 15.60386250  1303","REV_AT_EPOCH":"130"},{"ARG_OF_PERICENTER":"31.1502","PERIAPSIS":"384.947","LAUNCH_DATE":"2022-09-19","INCLINATION":"53.2168","OBJECT_TYPE":"PAYLOAD","SITE":"AFETR","MEAN_MOTION":"15.60538654","RA_OF_ASC_NODE":"41.9166","MEAN_ANOMALY":"32.0237","CLASSIFICATION_TYPE":"U","EPHEMERIS_TYPE":"0","ELEMENT_SET_NO":"999","TIME_SYSTEM":"UTC","OBJECT_NAME":"STARLINK-4760","RCS_SIZE":"LARGE","PERIOD":"92.276","NORAD_CAT_ID":"53828","CENTER_NAME":"EARTH","APOAPSIS":"387.257","FILE":"3640381","SEMIMAJOR_AXIS":"6764.237","GP_ID":"216636573","REF_FRAME":"TEME","EPOCH":"2022-11-01T22:00:00.999936","TLE_LINE1":"1 53828U 22114L   22305.91667824 -.01168873  00000-0 -15427-1 0  9997","MEAN_MOTION_DDOT":"0.0000000000000","COUNTRY_CODE":"US","TLE_LINE2":"2 53828  53.2168  41.9166 0001708  31.1502  32.0237 15.60538654  7487","REV_AT_EPOCH":"748","MEAN_ELEMENT_THEORY":"SGP4","ECCENTRICITY":"0.00017080","MEAN_MOTION_DOT":"-0.01168873","BSTAR":"-0.01542700000000","DECAY_DATE":null,"OBJECT_ID":"2022-114L"},{"MEAN_MOTION_DDOT":"0.0000000000000","TLE_LINE1":"1 53829U 22114M   22305.91667824 -.01135412  00000-0 -14994-1 0  9999","COUNTRY_CODE":"US","SEMIMAJOR_AXIS":"6764.623","GP_ID":"216636574","EPOCH":"2022-11-01T22:00:00.999936","REF_FRAME":"TEME","MEAN_ELEMENT_THEORY":"SGP4","REV_AT_EPOCH":"748","TLE_LINE2":"2 53829  53.2166  41.9245 0005203 276.6415 142.6903 15.60405089  7480","ECCENTRICITY":"0.00052030","MEAN_MOTION_DOT":"-0.01135412","DECAY_DATE":null,"OBJECT_ID":"2022-114M","BSTAR":"-0.01499400000000","LAUNCH_DATE":"2022-09-19","INCLINATION":"53.2166","OBJECT_TYPE":"PAYLOAD","PERIAPSIS":"382.968","ARG_OF_PERICENTER":"276.6415","MEAN_ANOMALY":"142.6903","SITE":"AFETR","RA_OF_ASC_NODE":"41.9245","MEAN_MOTION":"15.60405089","RCS_SIZE":"LARGE","OBJECT_NAME":"STARLINK-4759","EPHEMERIS_TYPE":"0","CLASSIFICATION_TYPE":"U","ELEMENT_SET_NO":"999","TIME_SYSTEM":"UTC","APOAPSIS":"390.008","FILE":"3640381","PERIOD":"92.284","NORAD_CAT_ID":"53829","CENTER_NAME":"EARTH"},{"MEAN_ANOMALY":"25.1525","SITE":"AFETR","RA_OF_ASC_NODE":"41.9116","MEAN_MOTION":"15.60600583","LAUNCH_DATE":"2022-09-19","INCLINATION":"53.2168","OBJECT_TYPE":"PAYLOAD","PERIAPSIS":"384.901","ARG_OF_PERICENTER":"40.5566","APOAPSIS":"386.945","FILE":"3640381","PERIOD":"92.272","NORAD_CAT_ID":"53830","CENTER_NAME":"EARTH","RCS_SIZE":"LARGE","OBJECT_NAME":"STARLINK-4761","EPHEMERIS_TYPE":"0","CLASSIFICATION_TYPE":"U","TIME_SYSTEM":"UTC","ELEMENT_SET_NO":"999","MEAN_ELEMENT_THEORY":"SGP4","REV_AT_EPOCH":"748","TLE_LINE2":"2 53830  53.2168  41.9116 0001511  40.5566  25.1525 15.60600583  7485","MEAN_MOTION_DDOT":"0.0000000000000","TLE_LINE1":"1 53830U 22114N   22305.91667824 -.01155894  00000-0 -15202-1 0  9990","COUNTRY_CODE":"US","SEMIMAJOR_AXIS":"6764.058","GP_ID":"216636570","EPOCH":"2022-11-01T22:00:00.999936","REF_FRAME":"TEME","DECAY_DATE":null,"OBJECT_ID":"2022-114N","BSTAR":"-0.01520200000000","ECCENTRICITY":"0.00015110","MEAN_MOTION_DOT":"-0.01155894"},{"PERIOD":"92.280","NORAD_CAT_ID":"53831","CENTER_NAME":"EARTH","FILE":"3640381","APOAPSIS":"387.283","TIME_SYSTEM":"UTC","ELEMENT_SET_NO":"999","EPHEMERIS_TYPE":"0","CLASSIFICATION_TYPE":"U","RCS_SIZE":"LARGE","OBJECT_NAME":"STARLINK-4649","RA_OF_ASC_NODE":"41.9215","MEAN_MOTION":"15.60467280","SITE":"AFETR","MEAN_ANOMALY":"16.8831","PERIAPSIS":"385.334","ARG_OF_PERICENTER":"43.7232","OBJECT_TYPE":"PAYLOAD","LAUNCH_DATE":"2022-09-19","INCLINATION":"53.2167","BSTAR":"-0.01550600000000","OBJECT_ID":"2022-114P","DECAY_DATE":null,"MEAN_MOTION_DOT":"-0.01171252","ECCENTRICITY":"0.00014410","REV_AT_EPOCH":"748","TLE_LINE2":"2 53831  53.2167  41.9215 0001441  43.7232  16.8831 15.60467280  7484","MEAN_ELEMENT_THEORY":"SGP4","EPOCH":"2022-11-01T22:00:00.999936","REF_FRAME":"TEME","GP_ID":"216636569","SEMIMAJOR_AXIS":"6764.443","COUNTRY_CODE":"US","MEAN_MOTION_DDOT":"0.0000000000000","TLE_LINE1":"1 53831U 22114P   22305.91667824 -.01171252  00000-0 -15506-1 0  9994"},{"RCS_SIZE":"LARGE","OBJECT_NAME":"STARLINK-4747","EPHEMERIS_TYPE":"0","CLASSIFICATION_TYPE":"U","ELEMENT_SET_NO":"999","TIME_SYSTEM":"UTC","APOAPSIS":"386.796","FILE":"3640381","CENTER_NAME":"EARTH","PERIOD":"92.268","NORAD_CAT_ID":"53832","LAUNCH_DATE":"2022-09-19","INCLINATION":"53.2168","OBJECT_TYPE":"PAYLOAD","PERIAPSIS":"384.674","ARG_OF_PERICENTER":"37.6578","MEAN_ANOMALY":"30.5868","SITE":"AFETR","RA_OF_ASC_NODE":"41.9064","MEAN_MOTION":"15.60665675","ECCENTRICITY":"0.00015680","MEAN_MOTION_DOT":"-0.01146004","DECAY_DATE":null,"OBJECT_ID":"2022-114Q","BSTAR":"-0.01502000000000","MEAN_MOTION_DDOT":"0.0000000000000","TLE_LINE1":"1 53832U 22114Q   22305.91667824 -.01146004  00000-0 -15020-1 0  9993","COUNTRY_CODE":"US","GP_ID":"216636568","SEMIMAJOR_AXIS":"6763.870","EPOCH":"2022-11-01T22:00:00.999936","REF_FRAME":"TEME","MEAN_ELEMENT_THEORY":"SGP4","REV_AT_EPOCH":"748","TLE_LINE2":"2 53832  53.2168  41.9064 0001568  37.6578  30.5868 15.60665675  7484"},{"MEAN_ANOMALY":"33.3504","RA_OF_ASC_NODE":"41.9135","MEAN_MOTION":"15.60554154","SITE":"AFETR","OBJECT_TYPE":"PAYLOAD","LAUNCH_DATE":"2022-09-19","INCLINATION":"53.2167","PERIAPSIS":"384.916","ARG_OF_PERICENTER":"31.0887","FILE":"3640381","APOAPSIS":"387.198","PERIOD":"92.275","CENTER_NAME":"EARTH","NORAD_CAT_ID":"53833","RCS_SIZE":"LARGE","OBJECT_NAME":"STARLINK-4771","TIME_SYSTEM":"UTC","ELEMENT_SET_NO":"999","EPHEMERIS_TYPE":"0","CLASSIFICATION_TYPE":"U","MEAN_ELEMENT_THEORY":"SGP4","REV_AT_EPOCH":"748","TLE_LINE2":"2 53833  53.2167  41.9135 0001687  31.0887  33.3504 15.60554154  7483","COUNTRY_CODE":"US","TLE_LINE1":"1 53833U 22114R   22305.91667824 -.01141645  00000-0 -15021-1 0  9991","MEAN_MOTION_DDOT":"0.0000000000000","EPOCH":"2022-11-01T22:00:00.999936","REF_FRAME":"TEME","SEMIMAJOR_AXIS":"6764.192","GP_ID":"216636782","OBJECT_ID":"2022-114R","DECAY_DATE":null,"BSTAR":"-0.01502100000000","MEAN_MOTION_DOT":"-0.01141645","ECCENTRICITY":"0.00016870"},{"GP_ID":"216636578","SEMIMAJOR_AXIS":"6763.667","REF_FRAME":"TEME","EPOCH":"2022-11-01T22:00:00.999936","MEAN_MOTION_DDOT":"0.0000000000000","TLE_LINE1":"1 53834U 22114S   22305.91667824 -.01142654  00000-0 -14929-1 0  9999","COUNTRY_CODE":"US","TLE_LINE2":"2 53834  53.2168  41.9015 0001887  27.0456  43.7413 15.60736102  7480","REV_AT_EPOCH":"748","MEAN_ELEMENT_THEORY":"SGP4","ECCENTRICITY":"0.00018870","MEAN_MOTION_DOT":"-0.01142654","BSTAR":"-0.01492900000000","DECAY_DATE":null,"OBJECT_ID":"2022-114S","ARG_OF_PERICENTER":"27.0456","PERIAPSIS":"384.255","LAUNCH_DATE":"2022-09-19","INCLINATION":"53.2168","OBJECT_TYPE":"PAYLOAD","SITE":"AFETR","MEAN_MOTION":"15.60736102","RA_OF_ASC_NODE":"41.9015","MEAN_ANOMALY":"43.7413","CLASSIFICATION_TYPE":"U","EPHEMERIS_TYPE":"0","TIME_SYSTEM":"UTC","ELEMENT_SET_NO":"999","OBJECT_NAME":"STARLINK-4737","RCS_SIZE":"LARGE","PERIOD":"92.264","CENTER_NAME":"EARTH","NORAD_CAT_ID":"53834","APOAPSIS":"386.808","FILE":"3640383"},{"REV_AT_EPOCH":"748","TLE_LINE2":"2 53835  53.2168  41.9086 0001780  30.8065  36.1627 15.60632749  7484","MEAN_ELEMENT_THEORY":"SGP4","SEMIMAJOR_AXIS":"6763.965","GP_ID":"216636588","EPOCH":"2022-11-01T22:00:00.999936","REF_FRAME":"TEME","TLE_LINE1":"1 53835U 22114T   22305.91667824 -.01151375  00000-0 -15116-1 0  9999","MEAN_MOTION_DDOT":"0.0000000000000","COUNTRY_CODE":"US","BSTAR":"-0.01511600000000","DECAY_DATE":null,"OBJECT_ID":"2022-114T","ECCENTRICITY":"0.00017800","MEAN_MOTION_DOT":"-0.01151375","SITE":"AFETR","RA_OF_ASC_NODE":"41.9086","MEAN_MOTION":"15.60632749","MEAN_ANOMALY":"36.1627","PERIAPSIS":"384.626","ARG_OF_PERICENTER":"30.8065","INCLINATION":"53.2168","LAUNCH_DATE":"2022-09-19","OBJECT_TYPE":"PAYLOAD","PERIOD":"92.270","CENTER_NAME":"EARTH","NORAD_CAT_ID":"53835","APOAPSIS":"387.034","FILE":"3640383","EPHEMERIS_TYPE":"0","CLASSIFICATION_TYPE":"U","ELEMENT_SET_NO":"999","TIME_SYSTEM":"UTC","RCS_SIZE":"LARGE","OBJECT_NAME":"STARLINK-4783"},{"APOAPSIS":"351.392","FILE":"3640431","NORAD_CAT_ID":"53836","PERIOD":"91.529","CENTER_NAME":"EARTH","OBJECT_NAME":"STARLINK-4778","RCS_SIZE":"LARGE","CLASSIFICATION_TYPE":"U","EPHEMERIS_TYPE":"0","ELEMENT_SET_NO":"999","TIME_SYSTEM":"UTC","MEAN_ANOMALY":"166.5862","SITE":"AFETR","MEAN_MOTION":"15.73263681","RA_OF_ASC_NODE":"41.6651","LAUNCH_DATE":"2022-09-19","INCLINATION":"53.2149","OBJECT_TYPE":"PAYLOAD","ARG_OF_PERICENTER":"20.5241","PERIAPSIS":"347.765","DECAY_DATE":null,"OBJECT_ID":"2022-114U","BSTAR":"-0.00088418000000","ECCENTRICITY":"0.00026960","MEAN_MOTION_DOT":"-0.00123274","MEAN_ELEMENT_THEORY":"SGP4","TLE_LINE2":"2 53836  53.2149  41.6651 0002696  20.5241 166.5862 15.73263681  1301","REV_AT_EPOCH":"130","TLE_LINE1":"1 53836U 22114U   22305.91667824 -.00123274  00000-0 -88418-3 0  9993","MEAN_MOTION_DDOT":"0.0000000000000","COUNTRY_CODE":"US","SEMIMAJOR_AXIS":"6727.714","GP_ID":"216688326","REF_FRAME":"TEME","EPOCH":"2022-11-01T22:00:00.999936"}];
